OBJECT_NAME,OBJECT_ID,EPOCH,MEAN_MOTION,ECCENTRICITY,INCLINATION,RA_OF_ASC_NODE,ARG_OF_PERICENTER,MEAN_ANOMALY,EPHEMERIS_TYPE,CLASSIFICATION_TYPE,NORAD_CAT_ID,ELEMENT_SET_NO,REV_AT_EPOCH,BSTAR,MEAN_MOTION_DOT,MEAN_MOTION_DDOT
ONEWEB-0534,2023-029B,2026-07-10T04:24:53.485632,13.20772961,.00020007,87.9179,269.8860,102.5119,257.6238,0,U,55797,999,16418,.16960714E-3,.82E-6,0
ONEWEB-0556,2023-029C,2026-07-09T04:56:21.630624,13.20788951,.00014158,87.9176,270.0786,100.6192,259.5101,0,U,55798,999,16405,-.59176599E-2,-.2393E-4,0
ONEWEB-0562,2023-029D,2026-07-10T04:15:12.669408,13.20772131,.00014961,87.9176,269.8672,79.5484,280.5818,0,U,55799,999,16418,.49337772E-4,.33E-6,0
ONEWEB-0563,2023-029E,2026-07-10T04:07:55.030080,13.20773259,.0002073,87.9176,269.8983,106.2239,253.9122,0,U,55800,999,16417,.26133915E-4,.24E-6,0
ONEWEB-0638,2023-029G,2026-07-09T05:43:59.399616,13.14504124,.00014198,87.8960,285.3561,96.7048,263.4244,0,U,55802,999,16229,.99489973E-4,.5E-6,0
ONEWEB-0640,2023-029J,2026-07-10T05:42:36.386496,13.14502354,.00014776,87.8956,285.1482,116.1548,243.9734,0,U,55804,999,16244,.37519966E-3,.152E-5,0
ONEWEB-0641,2023-029K,2026-07-08T20:41:52.025280,13.19732088,.00020579,87.9193,300.6496,106.5945,253.5414,0,U,55805,999,16177,-.25007361E-2,-.988E-5,0
ONEWEB-0642,2023-029L,2026-07-09T05:40:56.428608,13.19727392,.00025098,87.9191,300.5858,118.8424,241.2961,0,U,55806,999,16181,-.38855672E-3,-.143E-5,0
ONEWEB-0643,2023-029M,2026-07-09T05:14:17.756448,13.14502811,.00025808,87.8959,285.3389,111.2840,248.8566,0,U,55807,999,16228,-.41890412E-3,-.143E-5,0
ONEWEB-0644,2023-029N,2026-07-10T07:02:34.997568,13.19725497,.00022396,87.9181,300.3764,108.2878,251.8498,0,U,55808,999,16195,.42733819E-4,.3E-6,0
ONEWEB-0645,2023-029P,2026-07-10T05:45:14.890752,13.19725897,.0001907,87.9184,300.3839,115.5094,244.6236,0,U,55809,999,16194,.14056829E-4,.19E-6,0
ONEWEB-0646,2023-029Q,2026-07-10T06:10:15.581856,13.19726532,.0002183,87.9185,300.3809,107.2590,252.8782,0,U,55810,999,16193,.19234508E-3,.9E-6,0
ONEWEB-0648,2023-029R,2026-07-10T06:03:09.738720,13.14503006,.00022705,87.8980,285.1070,128.7383,231.3950,0,U,55811,999,16242,.5450751E-3,.215E-5,0
ONEWEB-0649,2023-029S,2026-07-10T06:46:38.523648,13.19725870,.00019706,87.9186,300.3739,108.6388,251.4959,0,U,55812,999,16197,-.17023109E-3,-.55E-6,0
ONEWEB-0650,2023-029T,2026-07-09T07:00:31.856832,13.19726002,.0002359,87.9183,300.5733,115.5231,244.6146,0,U,55813,999,16181,.61782119E-4,.38E-6,0
ONEWEB-0652,2023-029U,2026-07-10T05:35:45.367008,13.14502599,.0002057,87.8963,285.1192,98.0681,262.0682,0,U,55814,999,16239,.13716377E-3,.64E-6,0
ONEWEB-0653,2023-029V,2026-07-10T05:12:54.600768,13.14502047,.00019469,87.8967,285.1197,99.3095,260.8254,0,U,55815,999,16242,-.62644086E-3,-.219E-5,0
ONEWEB-0654,2023-029W,2026-07-10T05:06:02.923776,13.14522531,.00019317,87.9023,285.1190,88.9004,271.2347,0,U,55816,999,16244,-.12171623E-1,-.4499E-4,0
ONEWEB-0656,2023-029X,2026-07-09T04:10:21.629280,13.20769953,.00019948,87.9189,270.0495,86.5181,273.6181,0,U,55817,999,16405,.16573602E-3,.8E-6,0
ONEWEB-0657,2023-029Y,2026-07-10T13:49:45.002784,13.19726737,.00023176,87.9182,300.3164,82.0285,278.1111,0,U,55818,999,16199,.12812043E-3,.64E-6,0
ONEWEB-0658,2023-029Z,2026-07-10T06:26:11.591808,13.19725925,.0002286,87.9187,300.3556,110.8988,249.2389,0,U,55819,999,16196,.10816243E-3,.56E-6,0
ONEWEB-0660,2023-029AA,2026-07-10T06:23:42.099072,13.14501471,.00018301,87.8976,285.1022,107.2250,252.9080,0,U,55820,999,16243,.66711309E-4,.38E-6,0
ONEWEB-0661,2023-029AB,2026-07-09T05:39:25.099488,13.14502728,.00017617,87.8959,285.3477,104.1119,256.0206,0,U,55821,999,16228,.70001628E-4,.39E-6,0
ONEWEB-0662,2023-029AC,2026-07-10T06:14:34.947744,13.14501923,.00019124,87.8964,285.1482,112.6138,247.5194,0,U,55822,999,16246,.53072257E-3,.21E-5,0
ONEWEB-0663,2023-029AD,2026-07-10T04:34:34.416768,13.20885430,.00017606,87.9194,269.9176,142.3759,217.7497,0,U,55823,999,16418,.38915911E-2,.1598E-4,0
ONEWEB-0664,2023-029AE,2026-07-09T03:50:59.879328,13.20772061,.00015773,87.9180,270.1016,99.7884,260.3428,0,U,55824,999,16404,.13351157E-3,.67E-6,0
ONEWEB-0665,2023-029AF,2026-07-10T05:19:46.416000,13.14502217,.00019288,87.8960,285.1321,109.5729,250.5610,0,U,55825,999,16243,-.41945717E-3,-.143E-5,0
ONEWEB-0666,2023-029AG,2026-07-08T18:35:49.892064,13.20772685,.00026426,87.9182,270.1683,89.1796,270.9640,0,U,55826,999,16400,.75896942E-4,.44E-6,0
